{
  "type": "FeatureCollection",
  "features": [
    {
      "type": "Feature",
      "properties": {
        "norad_id": 38091,
        "name": "BEIDOU-2 G5 (C05)",
        "group": "gnss",
        "lat": -0.9183386290120278,
        "lon": 53.156343915749225,
        "alt_km": 35807.37005257988,
        "timestamp": "2025-12-17T17:50:19.492999+00:00",
        "meta_object_name": "BEIDOU-2 G5 (C05)",
        "meta_object_id": "2012-008A",
        "meta_epoch": "2025-12-16T15:20:55.893984",
        "meta_mean_motion": 1.00267602,
        "meta_eccentricity": 0.00130267,
        "meta_inclination": 3.1186,
        "meta_ra_of_asc_node": 70.7002,
        "meta_arg_of_pericenter": 231.2097,
        "meta_mean_anomaly": 72.6715,
        "meta_ephemeris_type": 0,
        "meta_classification_type": "U",
        "meta_norad_cat_id": 38091,
        "meta_element_set_no": 999,
        "meta_rev_at_epoch": 5053,
        "meta_bstar": 0,
        "meta_mean_motion_dot": 7.8e-07,
        "meta_mean_motion_ddot": 0,
        "tle_line1": "1 38091U 12008A   25350.63953581  .00000078  00000+0  00000+0 0  9990",
        "tle_line2": "2 38091   3.1186  70.7002 0013026 231.2097  72.6715  1.00267602 50539"
      },
      "geometry": {
        "type": "Point",
        "coordinates": [
          53.156343915749225,
          -0.9183386290120278
        ]
      }
    },
    {
      "type": "Feature",
      "properties": {
        "norad_id": 38250,
        "name": "BEIDOU-2 M3 (C11)",
        "group": "gnss",
        "lat": 25.357341216283267,
        "lon": -30.330513599893262,
        "alt_km": 21555.206548677714,
        "timestamp": "2025-12-17T17:50:19.493012+00:00",
        "meta_object_name": "BEIDOU-2 M3 (C11)",
        "meta_object_id": "2012-018A",
        "meta_epoch": "2025-12-17T03:50:10.570848",
        "meta_mean_motion": 1.86229929,
        "meta_eccentricity": 0.00242921,
        "meta_inclination": 55.916,
        "meta_ra_of_asc_node": 311.0083,
        "meta_arg_of_pericenter": 274.6123,
        "meta_mean_anomaly": 85.0955,
        "meta_ephemeris_type": 0,
        "meta_classification_type": "U",
        "meta_norad_cat_id": 38250,
        "meta_element_set_no": 999,
        "meta_rev_at_epoch": 9255,
        "meta_bstar": 0,
        "meta_mean_motion_dot": -9.2e-07,
        "meta_mean_motion_ddot": 0,
        "tle_line1": "1 38250U 12018A   25351.15984457 -.00000092  00000+0  00000+0 0  9999",
        "tle_line2": "2 38250  55.9160 311.0083 0024292 274.6123  85.0955  1.86229929 92557"
      },
      "geometry": {
        "type": "Point",
        "coordinates": [
          -30.330513599893262,
          25.357341216283267
        ]
      }
    },
    {
      "type": "Feature",
      "properties": {
        "norad_id": 38251,
        "name": "BEIDOU-2 M4 (C12)",
        "group": "gnss",
        "lat": 53.59080284822435,
        "lon": 17.24169309636102,
        "alt_km": 21562.315382458477,
        "timestamp": "2025-12-17T17:50:19.493023+00:00",
        "meta_object_name": "BEIDOU-2 M4 (C12)",
        "meta_object_id": "2012-018B",
        "meta_epoch": "2025-12-17T02:12:20.700000",
        "meta_mean_motion": 1.86229502,
        "meta_eccentricity": 0.00154788,
        "meta_inclination": 55.8177,
        "meta_ra_of_asc_node": 310.2391,
        "meta_arg_of_pericenter": 277.6479,
        "meta_mean_anomaly": 82.1616,
        "meta_ephemeris_type": 0,
        "meta_classification_type": "U",
        "meta_norad_cat_id": 38251,
        "meta_element_set_no": 999,
        "meta_rev_at_epoch": 9255,
        "meta_bstar": 0,
        "meta_mean_motion_dot": -9.2e-07,
        "meta_mean_motion_ddot": 0,
        "tle_line1": "1 38251U 12018B   25351.09190625 -.00000092  00000+0  00000+0 0  9999",
        "tle_line2": "2 38251  55.8177 310.2391 0015478 277.6479  82.1616  1.86229502 92550"
      },
      "geometry": {
        "type": "Point",
        "coordinates": [
          17.24169309636102,
          53.59080284822435
        ]
      }
    },
    {
      "type": "Feature",
      "properties": {
        "norad_id": 38652,
        "name": "SES-5 (EGNOS/PRN 136)",
        "group": "gnss",
        "lat": 0.05507371693618688,
        "lon": -0.8077911462753397,
        "alt_km": 35786.443130323794,
        "timestamp": "2025-12-17T17:50:19.493035+00:00",
        "meta_object_name": "SES-5 (EGNOS/PRN 136)",
        "meta_object_id": "2012-036A",
        "meta_epoch": "2025-12-16T21:56:27.413952",
        "meta_mean_motion": 1.0027208,
        "meta_eccentricity": 0.00019338,
        "meta_inclination": 0.0585,
        "meta_ra_of_asc_node": 304.6668,
        "meta_arg_of_pericenter": 321.0083,
        "meta_mean_anomaly": 154.2216,
        "meta_ephemeris_type": 0,
        "meta_classification_type": "U",
        "meta_norad_cat_id": 38652,
        "meta_element_set_no": 999,
        "meta_rev_at_epoch": 4263,
        "meta_bstar": 0,
        "meta_mean_motion_dot": 5.8e-07,
        "meta_mean_motion_ddot": 0,
        "tle_line1": "1 38652U 12036A   25350.91420618  .00000058  00000+0  00000+0 0  9993",
        "tle_line2": "2 38652   0.0585 304.6668 0001933 321.0083 154.2216  1.00272080 42636"
      },
      "geometry": {
        "type": "Point",
        "coordinates": [
          -0.8077911462753397,
          0.05507371693618688
        ]
      }
    },
    {
      "type": "Feature",
      "properties": {
        "norad_id": 38775,
        "name": "BEIDOU-2 M6 (C14)",
        "group": "gnss",
        "lat": -56.40434570572591,
        "lon": -20.342597911219013,
        "alt_km": 21524.95695411595,
        "timestamp": "2025-12-17T17:50:19.493047+00:00",
        "meta_object_name": "BEIDOU-2 M6 (C14)",
        "meta_object_id": "2012-050B",
        "meta_epoch": "2025-12-16T06:22:47.654112",
        "meta_mean_motion": 1.86230757,
        "meta_eccentricity": 0.00113185,
        "meta_inclination": 56.3814,
        "meta_ra_of_asc_node": 68.9504,
        "meta_arg_of_pericenter": 343.5807,
        "meta_mean_anomaly": 16.4038,
        "meta_ephemeris_type": 0,
        "meta_classification_type": "U",
        "meta_norad_cat_id": 38775,
        "meta_element_set_no": 999,
        "meta_rev_at_epoch": 8990,
        "meta_bstar": 0,
        "meta_mean_motion_dot": -8e-07,
        "meta_mean_motion_ddot": 0,
        "tle_line1": "1 38775U 12050B   25350.26582933 -.00000080  00000+0  00000+0 0  9998",
        "tle_line2": "2 38775  56.3814  68.9504 0011318 343.5807  16.4038  1.86230757 89902"
      },
      "geometry": {
        "type": "Point",
        "coordinates": [
          -20.342597911219013,
          -56.40434570572591
        ]
      }
    },
    {
      "type": "Feature",
      "properties": {
        "norad_id": 38779,
        "name": "GSAT-10 (GAGAN/PRN 128)",
        "group": "gnss",
        "lat": 0.035066042891110406,
        "lon": 77.18496886105328,
        "alt_km": 35778.8302713928,
        "timestamp": "2025-12-17T17:50:19.493060+00:00",
        "meta_object_name": "GSAT-10 (GAGAN/PRN 128)",
        "meta_object_id": "2012-051B",
        "meta_epoch": "2025-12-17T02:39:38.687616",
        "meta_mean_motion": 1.00272719,
        "meta_eccentricity": 0.00024891,
        "meta_inclination": 0.08,
        "meta_ra_of_asc_node": 265.8584,
        "meta_arg_of_pericenter": 219.6674,
        "meta_mean_anomaly": 83.397,
        "meta_ephemeris_type": 0,
        "meta_classification_type": "U",
        "meta_norad_cat_id": 38779,
        "meta_element_set_no": 999,
        "meta_rev_at_epoch": 4827,
        "meta_bstar": 0,
        "meta_mean_motion_dot": -1.41e-06,
        "meta_mean_motion_ddot": 0,
        "tle_line1": "1 38779U 12051B   25351.11086444 -.00000141  00000+0  00000+0 0  9992",
        "tle_line2": "2 38779   0.0800 265.8584 0002489 219.6674  83.3970  1.00272719 48270"
      },
      "geometry": {
        "type": "Point",
        "coordinates": [
          77.18496886105328,
          0.035066042891110406
        ]
      }
    },
    {
      "type": "Feature",
      "properties": {
        "norad_id": 38833,
        "name": "GPS BIIF-3  (PRN 24)",
        "group": "gnss",
        "lat": -47.888164155613936,
        "lon": 96.17028250243152,
        "alt_km": 20491.597787861727,
        "timestamp": "2025-12-17T17:50:19.493071+00:00",
        "meta_object_name": "GPS BIIF-3  (PRN 24)",
        "meta_object_id": "2012-053A",
        "meta_epoch": "2025-12-16T20:09:13.627584",
        "meta_mean_motion": 2.00565075,
        "meta_eccentricity": 0.01759464,
        "meta_inclination": 53.5585,
        "meta_ra_of_asc_node": 151.0706,
        "meta_arg_of_pericenter": 64.0575,
        "meta_mean_anomaly": 297.7402,
        "meta_ephemeris_type": 0,
        "meta_classification_type": "U",
        "meta_norad_cat_id": 38833,
        "meta_element_set_no": 999,
        "meta_rev_at_epoch": 9578,
        "meta_bstar": 0,
        "meta_mean_motion_dot": 7.2e-07,
        "meta_mean_motion_ddot": 0,
        "tle_line1": "1 38833U 12053A   25350.83974106  .00000072  00000+0  00000+0 0  9996",
        "tle_line2": "2 38833  53.5585 151.0706 0175946  64.0575 297.7402  2.00565075 95787"
      },
      "geometry": {
        "type": "Point",
        "coordinates": [
          96.17028250243152,
          -47.888164155613936
        ]
      }
    }
  ]
}